owner,family,early_lagged,late_lagged,early_sync,late_sync,early_intensity,late_intensity,early_codes,late_codes,early_pattern,late_pattern,model_name
01-ai,01-ai_YI,No Lag,No Lag,CS,CS,F,S,CSF,CSS,Frequent Alignment Pattern,Intermittent Alignment Pattern,9
1-800-BAD-CODE,1-800-BAD-CODE_XLM-ROBERTA,Upstream First,Downstream First,AS,AS,R,S,ASR,ASS,Rare disjoint pattern,Sporadic Disjoint Pattern,1
42dot,42dot_42DOT-LLM,No Lag,Upstream First,PS,AS,R,R,PSR,ASR,Sparse Alignment Pattern,Rare disjoint pattern,1
af1tang,af1tang_PERSONALGPT,Upstream First,Upstream First,AS,AS,R,R,ASR,ASR,Rare disjoint pattern,Rare disjoint pattern,1
ai-forever,ai-forever_gpt,No Lag,Upstream First,PS,PS,S,R,PSS,PSR,Dispersed Alignment Pattern,Sparse Alignment Pattern,5
ai-forever,ai-forever_sbert,Upstream First,Upstream First,AS,AS,S,S,ASS,ASS,Sporadic Disjoint Pattern,Sporadic Disjoint Pattern,1
akdeniz27,akdeniz27_bert,Downstream First,Downstream First,AS,PS,R,S,ASR,PSS,Rare disjoint pattern,Dispersed Alignment Pattern,1
albert,albert_albert,Upstream First,Upstream First,PS,PS,S,S,PSS,PSS,Dispersed Alignment Pattern,Dispersed Alignment Pattern,4
alisawuffles,alisawuffles_roberta,Downstream First,Downstream First,AS,AS,R,S,ASR,ASS,Rare disjoint pattern,Sporadic Disjoint Pattern,1
allenai,allenai_allenai,Downstream First,Downstream First,AS,AS,R,R,ASR,ASR,Rare disjoint pattern,Rare disjoint pattern,3
allenai,allenai_OLMo,Upstream First,Upstream First,AS,CS,R,S,ASR,CSS,Rare disjoint pattern,Intermittent Alignment Pattern,3
allenai,allenai_specter2,Upstream First,Upstream First,AS,AS,S,S,ASS,ASS,Sporadic Disjoint Pattern,Sporadic Disjoint Pattern,2
allenai,allenai_unifiedqa,Upstream First,Upstream First,PS,AS,R,S,PSR,ASS,Sparse Alignment Pattern,Sporadic Disjoint Pattern,4
AnnaWegmann,AnnaWegmann_Style-Embedding,Upstream First,Upstream First,PS,AS,R,R,PSR,ASR,Sparse Alignment Pattern,Rare disjoint pattern,1
apple,apple_OpenELM,No Lag,No Lag,CS,PS,R,R,CSR,PSR,Rare Alignment Pattern,Sparse Alignment Pattern,1
asapp,asapp_sew,Upstream First,Upstream First,AS,PS,R,R,ASR,PSR,Rare disjoint pattern,Sparse Alignment Pattern,2
aubmindlab,aubmindlab_bert,No Lag,Upstream First,PS,PS,S,S,PSS,PSS,Dispersed Alignment Pattern,Dispersed Alignment Pattern,2
augmxnt,augmxnt_shisa,Upstream First,Upstream First,AS,AS,R,R,ASR,ASR,Rare disjoint pattern,Rare disjoint pattern,1
avichr,avichr_heBERT,No Lag,No Lag,CS,PS,R,S,CSR,PSS,Rare Alignment Pattern,Dispersed Alignment Pattern,1
avsolatorio,avsolatorio_GIST,No Lag,Downstream First,CS,PS,R,R,CSR,PSR,Rare Alignment Pattern,Sparse Alignment Pattern,4
BAAI,BAAI_bge,No Lag,Downstream First,CS,PS,F,S,CSF,PSS,Frequent Alignment Pattern,Dispersed Alignment Pattern,15
Babelscape,Babelscape_rebel,Downstream First,Downstream First,AS,AS,R,S,ASR,ASS,Rare disjoint pattern,Sporadic Disjoint Pattern,1
Babelscape,Babelscape_wikineural,Upstream First,No Lag,AS,PS,R,S,ASR,PSS,Rare disjoint pattern,Dispersed Alignment Pattern,1
baichuan-inc,baichuan-inc_Baichuan,Downstream First,Downstream First,AS,PS,R,S,ASR,PSS,Rare disjoint pattern,Dispersed Alignment Pattern,2
basel,basel_ATTACK-BERT,No Lag,Downstream First,CS,AS,R,R,CSR,ASR,Rare Alignment Pattern,Rare disjoint pattern,1
batterydata,batterydata_batterybert,Upstream First,Upstream First,AS,CS,R,R,ASR,CSR,Rare disjoint pattern,Rare Alignment Pattern,1
bayartsogt,bayartsogt_albert,Upstream First,Upstream First,AS,AS,R,R,ASR,ASR,Rare disjoint pattern,Rare disjoint pattern,1
benjamin,benjamin_segment,Upstream First,Upstream First,AS,CS,R,R,ASR,CSR,Rare disjoint pattern,Rare Alignment Pattern,4
beomi,beomi_ko,Downstream First,Upstream First,PS,PS,S,R,PSS,PSR,Dispersed Alignment Pattern,Sparse Alignment Pattern,7
bergum,bergum_xtremedistil,Upstream First,No Lag,AS,PS,R,R,ASR,PSR,Rare disjoint pattern,Sparse Alignment Pattern,1
bhadresh-savani,bhadresh-savani,Upstream First,Upstream First,PS,AS,R,S,PSR,ASS,Sparse Alignment Pattern,Sporadic Disjoint Pattern,2
bigcode,bigcode_gpt,Upstream First,Upstream First,AS,CS,R,S,ASR,CSS,Rare disjoint pattern,Intermittent Alignment Pattern,1
bigcode,bigcode_starcoder,No Lag,No Lag,PS,PS,R,S,PSR,PSS,Sparse Alignment Pattern,Dispersed Alignment Pattern,3
bigcode,bigcode_starcoder2,No Lag,No Lag,PS,PS,R,R,PSR,PSR,Sparse Alignment Pattern,Sparse Alignment Pattern,3
bigscience,bigscience_workshop,Upstream First,Upstream First,PS,PS,S,S,PSS,PSS,Dispersed Alignment Pattern,Dispersed Alignment Pattern,11
blanchefort,blanchefort_rubert,Upstream First,Upstream First,AS,AS,R,R,ASR,ASR,Rare disjoint pattern,Rare disjoint pattern,1
bmd1905,bmd1905_vietnamese-correction,No Lag,No Lag,PS,CS,R,R,PSR,CSR,Sparse Alignment Pattern,Rare Alignment Pattern,1
BM-K,BM-K_RoBERTa,Upstream First,Upstream First,AS,PS,R,R,ASR,PSR,Rare disjoint pattern,Sparse Alignment Pattern,2
bvanaken,bvanaken_clinical-assertion,Upstream First,Upstream First,AS,AS,R,R,ASR,ASR,Rare disjoint pattern,Rare disjoint pattern,1
cahya,cahya_bert,Upstream First,Upstream First,AS,PS,R,R,ASR,PSR,Rare disjoint pattern,Sparse Alignment Pattern,2
cais,cais_HarmBench,No Lag,Downstream First,CS,PS,R,R,CSR,PSR,Rare Alignment Pattern,Sparse Alignment Pattern,1
cambridgeltl,cambridgeltl_SapBERT,Downstream First,Downstream First,AS,PS,R,S,ASR,PSS,Rare disjoint pattern,Dispersed Alignment Pattern,2
CAMeL-Lab,CAMeL-Lab_bert,Downstream First,Downstream First,AS,AS,S,R,ASS,ASR,Sporadic Disjoint Pattern,Rare disjoint pattern,5
cardiffnlp,cardiffnlp_tweeteval,Upstream First,Upstream First,AS,PS,S,S,ASS,PSS,Sporadic Disjoint Pattern,Dispersed Alignment Pattern,10
cardiffnlp,cardiffnlp_tweetnlp,Upstream First,No Lag,CS,PS,R,S,CSR,PSS,Rare Alignment Pattern,Dispersed Alignment Pattern,2
castorini,castorini_msmarco,Downstream First,Downstream First,AS,AS,R,S,ASR,ASS,Rare disjoint pattern,Sporadic Disjoint Pattern,2
ckiplab,ckiplab_chinese-model,Upstream First,Downstream First,CS,VS,R,R,CSR,VSR,Rare Alignment Pattern,Rare disjoint pattern,4
CohereForAI,CohereForAI_aya,Downstream First,Downstream First,PS,PS,R,S,PSR,PSS,Sparse Alignment Pattern,Dispersed Alignment Pattern,4
cointegrated,cointegrated_rubert,Upstream First,Downstream First,AS,AS,R,S,ASR,ASS,Rare disjoint pattern,Sporadic Disjoint Pattern,1
colorfulscoop,colorfulscoop_sbert,Upstream First,No Lag,CS,CS,R,R,CSR,CSR,Rare Alignment Pattern,Rare Alignment Pattern,1
cross-encoder,cross-encoder_embedding,Downstream First,Downstream First,VS,VS,R,R,VSR,VSR,Rare disjoint pattern,Rare disjoint pattern,16
csarron,csarron_mobilebert,Upstream First,Upstream First,AS,AS,R,R,ASR,ASR,Rare disjoint pattern,Rare disjoint pattern,1
csebuetnlp,csebuetnlp_banglat5,Upstream First,Upstream First,AS,AS,R,R,ASR,ASR,Rare disjoint pattern,Rare disjoint pattern,1
dandelin,dandelin_vilt,Upstream First,Upstream First,AS,AS,R,R,ASR,ASR,Rare disjoint pattern,Rare disjoint pattern,1
databricks,databricks_dbrx,Downstream First,Downstream First,AS,PS,R,R,ASR,PSR,Rare disjoint pattern,Sparse Alignment Pattern,2
davebulaval,davebulaval_MeaningBERT,No Lag,No Lag,CS,CS,R,R,CSR,CSR,Rare Alignment Pattern,Rare Alignment Pattern,1
Davlan,Davlan_multilingual,Downstream First,Downstream First,AS,AS,R,R,ASR,ASR,Rare disjoint pattern,Rare disjoint pattern,2
dbmdz,dbmdz_bert,Upstream First,Upstream First,PS,PS,S,S,PSS,PSS,Dispersed Alignment Pattern,Dispersed Alignment Pattern,6
dccuchile,dccuchile_bert,Upstream First,Upstream First,AS,AS,R,S,ASR,ASS,Rare disjoint pattern,Sporadic Disjoint Pattern,2
DeepPavlov,DeepPavlov_rubert,Upstream First,Downstream First,CS,PS,R,S,CSR,PSS,Rare Alignment Pattern,Dispersed Alignment Pattern,1
deepseek-ai,deepseek-ai_deepseek,No Lag,No Lag,CS,PS,R,S,CSR,PSS,Rare Alignment Pattern,Dispersed Alignment Pattern,9
deepset,deepset_haystack,Upstream First,Downstream First,CS,PS,S,S,CSS,PSS,Intermittent Alignment Pattern,Dispersed Alignment Pattern,9
defog,defog_sqlcoder,Upstream First,Upstream First,AS,CS,R,R,ASR,CSR,Rare disjoint pattern,Rare Alignment Pattern,1
defog,defog_sql-eval,Upstream First,Upstream First,AS,CS,R,R,ASR,CSR,Rare disjoint pattern,Rare Alignment Pattern,1
distilbert,distilbert_distilbert,Upstream First,Downstream First,CS,PS,S,S,CSS,PSS,Intermittent Alignment Pattern,Dispersed Alignment Pattern,9
DMetaSoul,DMetaSoul_Dmeta,Downstream First,Downstream First,AS,PS,R,R,ASR,PSR,Rare disjoint pattern,Sparse Alignment Pattern,1
dmis-lab,dmis-lab_biobert,Upstream First,Upstream First,AS,AS,R,R,ASR,ASR,Rare disjoint pattern,Rare disjoint pattern,2
Dongjin-kr,Dongjin-kr_ko-reranker,Upstream First,Upstream First,AS,CS,R,S,ASR,CSS,Rare disjoint pattern,Intermittent Alignment Pattern,1
dslim,dslim_bert,Downstream First,Upstream First,AS,AS,S,S,ASS,ASS,Sporadic Disjoint Pattern,Sporadic Disjoint Pattern,3
dwzhu,dwzhu_e5,Downstream First,No Lag,PS,PS,R,R,PSR,PSR,Sparse Alignment Pattern,Sparse Alignment Pattern,1
edumunozsala,edumunozsala_roberta,Upstream First,Upstream First,AS,AS,R,R,ASR,ASR,Rare disjoint pattern,Rare disjoint pattern,1
Efficient-Large-Model,Efficient-Large-Model_VILA,Downstream First,No Lag,AS,CS,R,R,ASR,CSR,Rare disjoint pattern,Rare Alignment Pattern,5
ehsanaghaei,ehsanaghaei_SecureBERT,No Lag,Upstream First,PS,PS,R,S,PSR,PSS,Sparse Alignment Pattern,Dispersed Alignment Pattern,1
elastic,elastic_distilbert,Downstream First,Downstream First,AS,AS,R,S,ASR,ASS,Rare disjoint pattern,Sporadic Disjoint Pattern,1
EleutherAI,EleutherAI_gpt,Upstream First,Downstream First,CS,AS,R,S,CSR,ASS,Rare Alignment Pattern,Sporadic Disjoint Pattern,1
EleutherAI,EleutherAI_llemma,Downstream First,No Lag,PS,PS,R,R,PSR,PSR,Sparse Alignment Pattern,Sparse Alignment Pattern,1
EleutherAI,EleutherAI_neox,Upstream First,Upstream First,PS,PS,S,S,PSS,PSS,Dispersed Alignment Pattern,Dispersed Alignment Pattern,4
EleutherAI,EleutherAI_polyglot,Upstream First,Upstream First,PS,PS,R,S,PSR,PSS,Sparse Alignment Pattern,Dispersed Alignment Pattern,2
EleutherAI,EleutherAI_pythia,Upstream First,Upstream First,PS,PS,S,R,PSS,PSR,Dispersed Alignment Pattern,Sparse Alignment Pattern,16
Elron,Elron_bleurt,Downstream First,Downstream First,AS,AS,R,R,ASR,ASR,Rare disjoint pattern,Rare disjoint pattern,2
EmbeddedLLM,EmbeddedLLM_bge,Downstream First,Upstream First,AS,CS,R,R,ASR,CSR,Rare disjoint pattern,Rare Alignment Pattern,1
EmergentMethods,EmergentMethods_gliner,Upstream First,Upstream First,AS,PS,R,R,ASR,PSR,Rare disjoint pattern,Sparse Alignment Pattern,1
emilyalsentzer,emilyalsentzer_Bio_ClinicalBERT,Upstream First,Upstream First,AS,AS,R,S,ASR,ASS,Rare disjoint pattern,Sporadic Disjoint Pattern,1
emrecan,emrecan_bert,Upstream First,Upstream First,AS,CS,R,R,ASR,CSR,Rare disjoint pattern,Rare Alignment Pattern,1
eugenesiow,eugenesiow_bart-paraphrase,Downstream First,Downstream First,AS,AS,R,R,ASR,ASR,Rare disjoint pattern,Rare disjoint pattern,1
facebook,facebook_bart,Downstream First,Downstream First,VS,VS,S,S,VSS,VSS,Sporadic Disjoint Pattern,Sporadic Disjoint Pattern,4
facebook,facebook_blenderbot,Upstream First,Upstream First,AS,PS,R,S,ASR,PSS,Rare disjoint pattern,Dispersed Alignment Pattern,2
facebook,facebook_contriever,Downstream First,Downstream First,AS,AS,R,R,ASR,ASR,Rare disjoint pattern,Rare disjoint pattern,1
facebook,facebook_dpr,Upstream First,No Lag,CS,PS,R,R,CSR,PSR,Rare Alignment Pattern,Sparse Alignment Pattern,2
facebook,facebook_dragon,Downstream First,Downstream First,AS,AS,R,R,ASR,ASR,Rare disjoint pattern,Rare disjoint pattern,1
facebook,facebook_encodec,Upstream First,Upstream First,AS,PS,R,R,ASR,PSR,Rare disjoint pattern,Sparse Alignment Pattern,2
facebook,facebook_esm2,Upstream First,Upstream First,VS,CS,R,R,VSR,CSR,Rare disjoint pattern,Rare Alignment Pattern,5
facebook,facebook_fasttext,Upstream First,Upstream First,AS,CS,R,R,ASR,CSR,Rare disjoint pattern,Rare Alignment Pattern,1
facebook,facebook_galactica,Downstream First,Downstream First,AS,PS,R,S,ASR,PSS,Rare disjoint pattern,Dispersed Alignment Pattern,1
facebook,facebook_hubert,Downstream First,Downstream First,AS,AS,R,R,ASR,ASR,Rare disjoint pattern,Rare disjoint pattern,1
facebook,facebook_mbart,Downstream First,Downstream First,AS,PS,S,S,ASS,PSS,Sporadic Disjoint Pattern,Dispersed Alignment Pattern,6
facebook,facebook_nllb,No Lag,Downstream First,CS,PS,R,S,CSR,PSS,Rare Alignment Pattern,Dispersed Alignment Pattern,4
facebook,facebook_opt,No Lag,Downstream First,CS,PS,R,S,CSR,PSS,Rare Alignment Pattern,Dispersed Alignment Pattern,8
facebook,facebook_roberta,Upstream First,Upstream First,AS,AS,R,R,ASR,ASR,Rare disjoint pattern,Rare disjoint pattern,1
facebook,facebook_wmt19,Upstream First,Downstream First,AS,AS,R,R,ASR,ASR,Rare disjoint pattern,Rare disjoint pattern,1
facebook,facebook_xlm,Upstream First,Upstream First,AS,AS,R,S,ASR,ASS,Rare disjoint pattern,Sporadic Disjoint Pattern,3
Falconsai,Falconsai_intent-classification,Downstream First,Downstream First,AS,AS,R,S,ASR,ASS,Rare disjoint pattern,Sporadic Disjoint Pattern,1
finiteautomata,finiteautomata_sentiment,No Lag,Downstream First,CS,PS,S,S,CSS,PSS,Intermittent Alignment Pattern,Dispersed Alignment Pattern,3
flair,flair_ner,Upstream First,Upstream First,PS,CS,R,R,PSR,CSR,Sparse Alignment Pattern,Rare Alignment Pattern,12
fxmarty,fxmarty_tinymodel,Downstream First,Upstream First,AS,AS,R,R,ASR,ASR,Rare disjoint pattern,Rare disjoint pattern,10
google,google_bigbird,Upstream First,Upstream First,AS,AS,R,S,ASR,ASS,Rare disjoint pattern,Sporadic Disjoint Pattern,1
google,google_byt5,No Lag,Downstream First,CS,PS,R,S,CSR,PSS,Rare Alignment Pattern,Dispersed Alignment Pattern,4
google,google_canine,Upstream First,Upstream First,AS,PS,R,R,ASR,PSR,Rare disjoint pattern,Sparse Alignment Pattern,2
google,google_flan,Downstream First,Upstream First,PS,CS,R,S,PSR,CSS,Sparse Alignment Pattern,Intermittent Alignment Pattern,14
google,google_gemma,Upstream First,Upstream First,AS,CS,S,S,ASS,CSS,Sporadic Disjoint Pattern,Intermittent Alignment Pattern,8
google,google_multilingual,Upstream First,Upstream First,PS,VS,R,R,PSR,VSR,Sparse Alignment Pattern,Rare disjoint pattern,6
google,google_pegasus,Upstream First,Downstream First,PS,PS,R,S,PSR,PSS,Sparse Alignment Pattern,Dispersed Alignment Pattern,3
google,google_reformer,Downstream First,Downstream First,AS,AS,R,S,ASR,ASS,Rare disjoint pattern,Sporadic Disjoint Pattern,1
google,google_switch,Downstream First,Downstream First,AS,VS,R,S,ASR,VSS,Rare disjoint pattern,Sporadic Disjoint Pattern,3
google-t5,google_t5transformer,Upstream First,Upstream First,PS,PS,S,S,PSS,PSS,Dispersed Alignment Pattern,Dispersed Alignment Pattern,5
google,google_tapas,Upstream First,Upstream First,AS,PS,R,R,ASR,PSR,Rare disjoint pattern,Sparse Alignment Pattern,3
google-bert,google-bert_bert,Upstream First,Upstream First,VS,VS,S,S,VSS,VSS,Sporadic Disjoint Pattern,Sporadic Disjoint Pattern,13
gradientai,gradientai_Llama,Upstream First,No Lag,AS,CS,R,R,ASR,CSR,Rare disjoint pattern,Rare Alignment Pattern,2
grammarly,grammarly_coedit,Downstream First,Downstream First,AS,PS,R,S,ASR,PSS,Rare disjoint pattern,Dispersed Alignment Pattern,1
GroNLP,GroNLP_bert,Upstream First,Upstream First,AS,PS,R,R,ASR,PSR,Rare disjoint pattern,Sparse Alignment Pattern,1
GroNLP,GroNLP_gpt,No Lag,Upstream First,CS,AS,R,R,CSR,ASR,Rare Alignment Pattern,Rare disjoint pattern,1
Gryphe,Gryphe_MythoMax,No Lag,Upstream First,CS,PS,R,R,CSR,PSR,Rare Alignment Pattern,Sparse Alignment Pattern,1
gsarti,gsarti_biobert,No Lag,Upstream First,CS,PS,R,R,CSR,PSR,Rare Alignment Pattern,Sparse Alignment Pattern,1
h2oai,h2oai_h2o,Upstream First,Upstream First,AS,CS,R,R,ASR,CSR,Rare disjoint pattern,Rare Alignment Pattern,1
h2oai,h2oai_h2ogpt,Upstream First,Downstream First,CS,AS,R,R,CSR,ASR,Rare Alignment Pattern,Rare disjoint pattern,2
Hate-speech-CNERG,Hate-speech-CNERG_Xplain,Upstream First,Upstream First,AS,AS,S,R,ASS,ASR,Sporadic Disjoint Pattern,Rare disjoint pattern,3
hatmimoha,hatmimoha_arabic,No Lag,Upstream First,PS,PS,S,S,PSS,PSS,Dispersed Alignment Pattern,Dispersed Alignment Pattern,1
Hello-SimpleAI,Hello-SimpleAI_chatgpt,No Lag,No Lag,CS,CS,R,R,CSR,CSR,Rare Alignment Pattern,Rare Alignment Pattern,1
Helsinki-NLP,Helsinki-NLP_challenge,Upstream First,Upstream First,VS,PS,S,R,VSS,PSR,Sporadic Disjoint Pattern,Sparse Alignment Pattern,5
Helsinki-NLP,Helsinki-NLP_opus,Upstream First,Upstream First,VS,PS,S,S,VSS,PSS,Sporadic Disjoint Pattern,Dispersed Alignment Pattern,40
Helsinki-NLP,Helsinki-NLP_romance,Upstream First,Downstream First,PS,PS,S,S,PSS,PSS,Dispersed Alignment Pattern,Dispersed Alignment Pattern,1
hfl,hfl_chinese-model,Upstream First,Upstream First,VS,PS,S,S,VSS,PSS,Sporadic Disjoint Pattern,Dispersed Alignment Pattern,5
hkunlp,hkunlp_instructor,No Lag,Downstream First,CS,PS,R,R,CSR,PSR,Rare Alignment Pattern,Sparse Alignment Pattern,3
HooshvareLab,HooshvareLab_bert,Upstream First,Upstream First,CS,PS,R,R,CSR,PSR,Rare Alignment Pattern,Sparse Alignment Pattern,1
HooshvareLab,HooshvareLab_parsbert,No Lag,Upstream First,CS,AS,R,R,CSR,ASR,Rare Alignment Pattern,Rare disjoint pattern,1
HuggingFaceFW,HuggingFaceFW_fineweb,Upstream First,Upstream First,AS,CS,R,R,ASR,CSR,Rare disjoint pattern,Rare Alignment Pattern,1
"HuggingFaceH4,HuggingFaceM4",HuggingFaceH4_alignment,Downstream First,Downstream First,PS,PS,R,S,PSR,PSS,Sparse Alignment Pattern,Dispersed Alignment Pattern,6
HuggingFaceM4,HuggingFaceM4_idefics,No Lag,No Lag,PS,PS,R,R,PSR,PSR,Sparse Alignment Pattern,Sparse Alignment Pattern,1
ibm-granite,ibm-granite_granite,No Lag,No Lag,CS,PS,R,R,CSR,PSR,Rare Alignment Pattern,Sparse Alignment Pattern,3
IDEA-CCNL,IDEA-CCNL_Erlangshen,Upstream First,Downstream First,CS,PS,R,S,CSR,PSS,Rare Alignment Pattern,Dispersed Alignment Pattern,1
ielab,ielab_TILDE,Upstream First,Downstream First,CS,AS,R,R,CSR,ASR,Rare Alignment Pattern,Rare disjoint pattern,1
indobenchmark,indobenchmark_indobert,Downstream First,Downstream First,AS,AS,R,R,ASR,ASR,Rare disjoint pattern,Rare disjoint pattern,2
indolem,indolem_indobert,Downstream First,No Lag,PS,PS,S,R,PSS,PSR,Dispersed Alignment Pattern,Sparse Alignment Pattern,2
Intel,Intel_distilbert,Upstream First,Upstream First,PS,CS,S,S,PSS,CSS,Dispersed Alignment Pattern,Intermittent Alignment Pattern,2
internlm,internlm_internlm2,Upstream First,Upstream First,AS,PS,R,S,ASR,PSS,Rare disjoint pattern,Dispersed Alignment Pattern,9
intfloat,intfloat_multilingual,Upstream First,Upstream First,AS,VS,S,S,ASS,VSS,Sporadic Disjoint Pattern,Sporadic Disjoint Pattern,4
ise-uiuc,ise-uiuc_Magicoder,Upstream First,No Lag,CS,PS,R,R,CSR,PSR,Rare Alignment Pattern,Sparse Alignment Pattern,1
ivanlau,ivanlau_language-detection,Downstream First,Upstream First,PS,CS,R,R,PSR,CSR,Sparse Alignment Pattern,Rare Alignment Pattern,1
JackFram,JackFram_llama,Upstream First,Upstream First,AS,PS,S,S,ASS,PSS,Sporadic Disjoint Pattern,Dispersed Alignment Pattern,2
jackhhao,jackhhao_jailbreak,No Lag,Upstream First,CS,AS,R,R,CSR,ASR,Rare Alignment Pattern,Rare disjoint pattern,1
j-hartmann,j-hartmann_emotion,Upstream First,No Lag,PS,PS,R,S,PSR,PSS,Sparse Alignment Pattern,Dispersed Alignment Pattern,1
jhgan,jhgan_ko-model,No Lag,No Lag,CS,PS,R,R,CSR,PSR,Rare Alignment Pattern,Sparse Alignment Pattern,3
jinaai,jinaai_jina,Upstream First,Upstream First,AS,VS,S,S,ASS,VSS,Sporadic Disjoint Pattern,Sporadic Disjoint Pattern,7
jinmang2,jinmang2_kpfbert,Upstream First,Upstream First,AS,AS,R,R,ASR,ASR,Rare disjoint pattern,Rare disjoint pattern,1
KB,KB_bert,Upstream First,Upstream First,AS,CS,R,R,ASR,CSR,Rare disjoint pattern,Rare Alignment Pattern,2
klue,klue_bert,Upstream First,Upstream First,PS,AS,R,R,PSR,ASR,Sparse Alignment Pattern,Rare disjoint pattern,1
KoichiYasuoka,KoichiYasuoka_bert,Downstream First,Downstream First,PS,PS,S,S,PSS,PSS,Dispersed Alignment Pattern,Dispersed Alignment Pattern,2
kuelumbus,kuelumbus_polyBERT,No Lag,Downstream First,CS,PS,R,R,CSR,PSR,Rare Alignment Pattern,Sparse Alignment Pattern,1
ku-nlp,ku-nlp_deberta,Upstream First,Upstream First,AS,AS,R,R,ASR,ASR,Rare disjoint pattern,Rare disjoint pattern,1
l3cube-pune,l3cube-pune_marathiNLP,Upstream First,Downstream First,PS,PS,S,S,PSS,PSS,Dispersed Alignment Pattern,Dispersed Alignment Pattern,2
laion,laion_clap,Upstream First,Upstream First,AS,CS,R,R,ASR,CSR,Rare disjoint pattern,Rare Alignment Pattern,4
Langboat,Langboat_Mengzi3,No Lag,Downstream First,CS,PS,R,R,CSR,PSR,Rare Alignment Pattern,Sparse Alignment Pattern,1
LanguageBind,LanguageBind_LLaVA,Upstream First,No Lag,CS,CS,R,R,CSR,CSR,Rare Alignment Pattern,Rare Alignment Pattern,3
LanguageBind,LanguageBind_Video-LLaVA,Upstream First,Upstream First,CS,PS,R,R,CSR,PSR,Rare Alignment Pattern,Sparse Alignment Pattern,1
llm-blender,llm-blender_PairRM,Upstream First,Upstream First,AS,CS,R,S,ASR,CSS,Rare disjoint pattern,Intermittent Alignment Pattern,1
llm-book,llm-book_bert,Downstream First,Downstream First,AS,PS,R,R,ASR,PSR,Rare disjoint pattern,Sparse Alignment Pattern,1
lmms-lab,lmms-lab_LLaVA,Upstream First,Upstream First,AS,CS,R,S,ASR,CSS,Rare disjoint pattern,Intermittent Alignment Pattern,4
lmstudio-community,lmstudio-community_aya,Upstream First,Upstream First,AS,PS,R,R,ASR,PSR,Rare disjoint pattern,Sparse Alignment Pattern,4
lmsys,lmsys_fastchat,Upstream First,Downstream First,CS,AS,R,R,CSR,ASR,Rare Alignment Pattern,Rare disjoint pattern,1
lmsys,lmsys_vicuna,No Lag,No Lag,PS,PS,R,R,PSR,PSR,Sparse Alignment Pattern,Sparse Alignment Pattern,6
lordtt13,lordtt13_mobilebert,Upstream First,Upstream First,AS,AS,R,R,ASR,ASR,Rare disjoint pattern,Rare disjoint pattern,1
lucadiliello,lucadiliello_BLEURT,No Lag,Upstream First,CS,CS,R,R,CSR,CSR,Rare Alignment Pattern,Rare Alignment Pattern,3
LumiOpen,LumiOpen_Poro,Downstream First,Downstream First,AS,PS,R,S,ASR,PSS,Rare disjoint pattern,Dispersed Alignment Pattern,1
lxyuan,lxyuan_distilbert,Upstream First,Upstream First,AS,CS,R,R,ASR,CSR,Rare disjoint pattern,Rare Alignment Pattern,1
m3hrdadfi,m3hrdadfi_typo-detector,Upstream First,Upstream First,AS,CS,R,R,ASR,CSR,Rare disjoint pattern,Rare Alignment Pattern,1
m3rg-iitd,m3rg-iitd_matscibert,Upstream First,Upstream First,CS,PS,R,S,CSR,PSS,Rare Alignment Pattern,Dispersed Alignment Pattern,1
maidalun1020,maidalun1020_bce-embedding,Upstream First,Upstream First,AS,CS,R,F,ASR,CSF,Rare disjoint pattern,Frequent Alignment Pattern,1
malteos,malteos_scincl,No Lag,Upstream First,CS,PS,R,S,CSR,PSS,Rare Alignment Pattern,Dispersed Alignment Pattern,1
m-a-p,m-a-p_OpenCodeInterpreter,No Lag,No Lag,CS,CS,R,R,CSR,CSR,Rare Alignment Pattern,Rare Alignment Pattern,2
MaziyarPanahi,MaziyarPanahi_WizardLM,Upstream First,Upstream First,AS,AS,R,R,ASR,ASR,Rare disjoint pattern,Rare disjoint pattern,1
MBZUAI,MBZUAI_LaMini,No Lag,No Lag,CS,CS,R,R,CSR,CSR,Rare Alignment Pattern,Rare Alignment Pattern,1
McGill-NLP,McGill-NLP_LLM2Vec,No Lag,Downstream First,CS,PS,R,R,CSR,PSR,Rare Alignment Pattern,Sparse Alignment Pattern,2
medicalai,medicalai_ClinicalBERT,No Lag,Downstream First,CS,PS,R,R,CSR,PSR,Rare Alignment Pattern,Sparse Alignment Pattern,1
meta-llama,meta-llama_CodeLlama,Upstream First,Upstream First,AS,AS,R,R,ASR,ASR,Rare disjoint pattern,Rare disjoint pattern,2
meta-llama,meta-llama_Llama,Upstream First,Downstream First,CS,PS,R,S,CSR,PSS,Rare Alignment Pattern,Dispersed Alignment Pattern,11
michaelfeil,michaelfeil_bge,Upstream First,No Lag,CS,CS,R,R,CSR,CSR,Rare Alignment Pattern,Rare Alignment Pattern,1
microsoft,microsoft_BiomedNLP,Downstream First,Downstream First,AS,AS,R,R,ASR,ASR,Rare disjoint pattern,Rare disjoint pattern,2
microsoft,microsoft_BiomedVLP,Upstream First,Downstream First,CS,PS,R,S,CSR,PSS,Rare Alignment Pattern,Dispersed Alignment Pattern,1
microsoft,microsoft_codebert,Upstream First,Downstream First,AS,AS,R,S,ASR,ASS,Rare disjoint pattern,Sporadic Disjoint Pattern,3
microsoft,microsoft_deberta,Upstream First,Upstream First,PS,PS,S,S,PSS,PSS,Dispersed Alignment Pattern,Dispersed Alignment Pattern,11
microsoft,microsoft_DialoGPT,Upstream First,Upstream First,PS,PS,S,S,PSS,PSS,Dispersed Alignment Pattern,Dispersed Alignment Pattern,3
microsoft,microsoft_infoxlm,Upstream First,Upstream First,CS,CS,R,R,CSR,CSR,Rare Alignment Pattern,Rare Alignment Pattern,1
microsoft,microsoft_llmlingua,Upstream First,Upstream First,AS,CS,R,R,ASR,CSR,Rare disjoint pattern,Rare Alignment Pattern,1
microsoft,microsoft_Multilingual,Upstream First,Downstream First,CS,PS,R,S,CSR,PSS,Rare Alignment Pattern,Dispersed Alignment Pattern,1
microsoft,microsoft_Orca,Upstream First,Upstream First,AS,AS,R,R,ASR,ASR,Rare disjoint pattern,Rare disjoint pattern,1
microsoft,microsoft_phi-1,Upstream First,Upstream First,AS,AS,S,S,ASS,ASS,Sporadic Disjoint Pattern,Sporadic Disjoint Pattern,2
microsoft,microsoft_phi-2,Downstream First,Downstream First,AS,PS,R,S,ASR,PSS,Rare disjoint pattern,Dispersed Alignment Pattern,1
microsoft,microsoft_Phi-3,Downstream First,Downstream First,PS,PS,R,S,PSR,PSS,Sparse Alignment Pattern,Dispersed Alignment Pattern,8
microsoft,microsoft_unixcoder,Upstream First,Upstream First,AS,PS,R,R,ASR,PSR,Rare disjoint pattern,Sparse Alignment Pattern,1
microsoft,microsoft_wavlm,Upstream First,Upstream First,AS,PS,R,R,ASR,PSR,Rare disjoint pattern,Sparse Alignment Pattern,3
MilaNLProc,MilaNLProc_feel-it,Downstream First,Upstream First,PS,PS,R,S,PSR,PSS,Sparse Alignment Pattern,Dispersed Alignment Pattern,3
mistralai,mistralai_codestral,Upstream First,Downstream First,CS,PS,R,S,CSR,PSS,Rare Alignment Pattern,Dispersed Alignment Pattern,1
mistralai,mistralai_finetune,Downstream First,Downstream First,AS,PS,R,S,ASR,PSS,Rare disjoint pattern,Dispersed Alignment Pattern,4
mistralai,mistralai_Mistral-inference,No Lag,Downstream First,PS,PS,S,S,PSS,PSS,Dispersed Alignment Pattern,Dispersed Alignment Pattern,5
mixedbread-ai,mixedbread-ai_mxbai,Downstream First,No Lag,AS,PS,R,S,ASR,PSS,Rare disjoint pattern,Dispersed Alignment Pattern,4
mlabonne,mlabonne_NeuralDaredevil,Upstream First,Upstream First,AS,PS,R,S,ASR,PSS,Rare disjoint pattern,Dispersed Alignment Pattern,1
mlabonne,mlabonne_NeuralMonarch,Upstream First,Downstream First,AS,PS,R,R,ASR,PSR,Rare disjoint pattern,Sparse Alignment Pattern,1
MLP-KTLim,MLP-KTLim_Bllossom,No Lag,No Lag,CS,PS,R,S,CSR,PSS,Rare Alignment Pattern,Dispersed Alignment Pattern,1
MoritzLaurer,MoritzLaurer_DeBERTa,Downstream First,Downstream First,VS,PS,S,S,VSS,PSS,Sporadic Disjoint Pattern,Dispersed Alignment Pattern,10
mosaicml,mosaicml_mpt,Upstream First,Upstream First,AS,PS,R,S,ASR,PSS,Rare disjoint pattern,Dispersed Alignment Pattern,1
mrm8488,mrm8488_distilroberta,Upstream First,Upstream First,AS,CS,R,R,ASR,CSR,Rare disjoint pattern,Rare Alignment Pattern,1
mtgv,mtgv_MobileVLM,Upstream First,Upstream First,AS,CS,R,R,ASR,CSR,Rare disjoint pattern,Rare Alignment Pattern,1
Muennighoff,Muennighoff_SGPT,No Lag,Upstream First,PS,PS,S,R,PSS,PSR,Dispersed Alignment Pattern,Sparse Alignment Pattern,1
nateraw,nateraw_bert,Downstream First,Downstream First,AS,AS,R,R,ASR,ASR,Rare disjoint pattern,Rare disjoint pattern,1
naver,naver_efficient,Upstream First,Downstream First,CS,AS,R,R,CSR,ASR,Rare Alignment Pattern,Rare disjoint pattern,4
naver-clova-ocr,naver-clova-ocr_bros,Downstream First,Downstream First,AS,PS,R,R,ASR,PSR,Rare disjoint pattern,Sparse Alignment Pattern,1
nbroad,nbroad_ESG-BERT,Upstream First,Upstream First,AS,PS,R,S,ASR,PSS,Rare disjoint pattern,Dispersed Alignment Pattern,1
neulab,neulab_codebert,Upstream First,Upstream First,AS,CS,R,R,ASR,CSR,Rare disjoint pattern,Rare Alignment Pattern,4
neuralmagic,neuralmagic_bge,Upstream First,Upstream First,VS,CS,S,R,VSS,CSR,Sporadic Disjoint Pattern,Rare Alignment Pattern,3
neuralmagic,neuralmagic_TinyLlama,Upstream First,Upstream First,AS,CS,R,R,ASR,CSR,Rare disjoint pattern,Rare Alignment Pattern,1
neuralmind,neuralmind_bert,No Lag,Downstream First,CS,PS,R,S,CSR,PSS,Rare Alignment Pattern,Dispersed Alignment Pattern,2
Nexusflow,Nexusflow_NexusRaven,Upstream First,Upstream First,AS,AS,R,S,ASR,ASS,Rare disjoint pattern,Sporadic Disjoint Pattern,1
nghuyong,nghuyong_ernie,Downstream First,Downstream First,AS,PS,R,S,ASR,PSS,Rare disjoint pattern,Dispersed Alignment Pattern,1
nickprock,nickprock_sentence-bert,Downstream First,Downstream First,AS,AS,R,R,ASR,ASR,Rare disjoint pattern,Rare disjoint pattern,1
nielsr,nielsr_transformer,Upstream First,Upstream First,PS,PS,R,R,PSR,PSR,Sparse Alignment Pattern,Sparse Alignment Pattern,2
nlpaueb,nlpaueb_legal-bert,Upstream First,Upstream First,AS,AS,S,S,ASS,ASS,Sporadic Disjoint Pattern,Sporadic Disjoint Pattern,1
nomic-ai,nomic-ai_gpt4all,Upstream First,No Lag,CS,CS,R,R,CSR,CSR,Rare Alignment Pattern,Rare Alignment Pattern,1
nomic-ai,nomic-ai_nomic,Downstream First,Downstream First,PS,PS,R,S,PSR,PSS,Sparse Alignment Pattern,Dispersed Alignment Pattern,4
NousResearch,NousResearch_Hermes-2,Downstream First,No Lag,PS,PS,R,S,PSR,PSS,Sparse Alignment Pattern,Dispersed Alignment Pattern,8
NousResearch,NousResearch_subnet,Upstream First,Upstream First,AS,CS,R,R,ASR,CSR,Rare disjoint pattern,Rare Alignment Pattern,2
NousResearch,NousResearch_Yarn-Mistral,Upstream First,No Lag,CS,CS,R,R,CSR,CSR,Rare Alignment Pattern,Rare Alignment Pattern,1
obi,obi_deid_roberta,No Lag,Downstream First,CS,AS,R,R,CSR,ASR,Rare Alignment Pattern,Rare disjoint pattern,1
oliverguhr,oliverguhr_fullstop,Upstream First,Downstream First,AS,PS,R,S,ASR,PSS,Rare disjoint pattern,Dispersed Alignment Pattern,1
oliverguhr,oliverguhr_german-sentiment,Upstream First,Upstream First,PS,PS,S,S,PSS,PSS,Dispersed Alignment Pattern,Dispersed Alignment Pattern,1
openai-community,openai-community_gpt2,No Lag,Upstream First,PS,PS,S,S,PSS,PSS,Dispersed Alignment Pattern,Dispersed Alignment Pattern,4
openai-community,openai-community_openai,Upstream First,Upstream First,AS,AS,S,S,ASS,ASS,Sporadic Disjoint Pattern,Sporadic Disjoint Pattern,1
openai-community,openai-community_roberta,Upstream First,Upstream First,AS,AS,S,S,ASS,ASS,Sporadic Disjoint Pattern,Sporadic Disjoint Pattern,2
openbmb,openbmb_MiniCPM,No Lag,No Lag,CS,CS,R,R,CSR,CSR,Rare Alignment Pattern,Rare Alignment Pattern,1
openchat,openchat_openchat,Upstream First,Upstream First,AS,PS,R,S,ASR,PSS,Rare disjoint pattern,Dispersed Alignment Pattern,5
openlm-research,openlm-research_open_llama,Upstream First,Upstream First,AS,CS,R,R,ASR,CSR,Rare disjoint pattern,Rare Alignment Pattern,4
Open-Orca,Open-Orca_OpenOrca,Upstream First,Upstream First,PS,CS,R,R,PSR,CSR,Sparse Alignment Pattern,Rare Alignment Pattern,2
orgcatorg,orgcatorg_xlm-v,Upstream First,Upstream First,AS,AS,R,R,ASR,ASR,Rare disjoint pattern,Rare disjoint pattern,1
owkin,owkin_phikon,Upstream First,Downstream First,PS,AS,R,R,PSR,ASR,Sparse Alignment Pattern,Rare disjoint pattern,1
pdelobelle,pdelobelle_robbert-v2,Upstream First,Upstream First,AS,PS,R,S,ASR,PSS,Rare disjoint pattern,Dispersed Alignment Pattern,1
persiannlp,persiannlp_mt5,Upstream First,Upstream First,AS,PS,R,R,ASR,PSR,Rare disjoint pattern,Sparse Alignment Pattern,1
PlanTL-GOB-ES,PlanTL-GOB-ES_roberta,Upstream First,Upstream First,PS,PS,S,S,PSS,PSS,Dispersed Alignment Pattern,Dispersed Alignment Pattern,1
princeton-nlp,princeton-nlp_Sheared,No Lag,Downstream First,CS,PS,R,S,CSR,PSS,Rare Alignment Pattern,Dispersed Alignment Pattern,1
princeton-nlp,princeton-nlp_sup-simcse,No Lag,Upstream First,PS,AS,R,R,PSR,ASR,Sparse Alignment Pattern,Rare disjoint pattern,4
prithivida,prithivida_grammar,Downstream First,No Lag,AS,CS,R,R,ASR,CSR,Rare disjoint pattern,Rare Alignment Pattern,1
prithivida,prithivida_parrot,Downstream First,Downstream First,AS,AS,R,R,ASR,ASR,Rare disjoint pattern,Rare disjoint pattern,3
ProsusAI,ProsusAI_finbert,Upstream First,Upstream First,AS,AS,R,S,ASR,ASS,Rare disjoint pattern,Sporadic Disjoint Pattern,1
protectai,protectai_deberta,Upstream First,Upstream First,AS,AS,S,R,ASS,ASR,Sporadic Disjoint Pattern,Rare disjoint pattern,2
protectai,protectai_llm-guard,Upstream First,Upstream First,PS,CS,R,R,PSR,CSR,Sparse Alignment Pattern,Rare Alignment Pattern,4
PrunaAI,PrunaAI_MaziyarPanahi,Upstream First,Upstream First,AS,AS,R,R,ASR,ASR,Rare disjoint pattern,Rare disjoint pattern,1
pszemraj,pszemraj_long-t5,Downstream First,Downstream First,AS,PS,R,S,ASR,PSS,Rare disjoint pattern,Dispersed Alignment Pattern,1
Qwen,Qwen_CodeQwen,No Lag,No Lag,CS,CS,R,R,CSR,CSR,Rare Alignment Pattern,Rare Alignment Pattern,2
Qwen,Qwen_Qwen,Upstream First,Upstream First,VS,PS,R,F,VSR,PSF,Rare disjoint pattern,Dense Partial Alignment Pattern,4
Qwen,Qwen_Qwen1,Downstream First,Downstream First,PS,PS,R,S,PSR,PSS,Sparse Alignment Pattern,Dispersed Alignment Pattern,22
Qwen,Qwen_Qwen2,Upstream First,Upstream First,AS,CS,R,R,ASR,CSR,Rare disjoint pattern,Rare Alignment Pattern,13
Qwen,Qwen_Qwen-Audio,Upstream First,Upstream First,AS,CS,R,R,ASR,CSR,Rare disjoint pattern,Rare Alignment Pattern,1
Qwen,Qwen_Qwen-VL,No Lag,Downstream First,CS,PS,R,S,CSR,PSS,Rare Alignment Pattern,Dispersed Alignment Pattern,1
rinna,rinna_japanese-clip,No Lag,No Lag,CS,PS,R,S,CSR,PSS,Rare Alignment Pattern,Dispersed Alignment Pattern,1
rinna,rinna_japanese-gpt,Upstream First,Upstream First,AS,AS,R,S,ASR,ASS,Rare disjoint pattern,Sporadic Disjoint Pattern,3
Salesforce,Salesforce_ctrl,Upstream First,Upstream First,AS,AS,S,S,ASS,ASS,Sporadic Disjoint Pattern,Sporadic Disjoint Pattern,1
SamLowe,SamLowe_roberta,Downstream First,No Lag,PS,CS,R,R,PSR,CSR,Sparse Alignment Pattern,Rare Alignment Pattern,1
SCUT-DLVCLab,SCUT-DLVCLab_lilt-roberta,Upstream First,Upstream First,AS,PS,R,R,ASR,PSR,Rare disjoint pattern,Sparse Alignment Pattern,1
SeaLLMs,SeaLLMs_SeaLLM,Upstream First,No Lag,PS,CS,R,R,PSR,CSR,Sparse Alignment Pattern,Rare Alignment Pattern,1
setu4993,setu4993_LaBSE,Downstream First,No Lag,AS,PS,R,S,ASR,PSS,Rare disjoint pattern,Dispersed Alignment Pattern,1
seyonec,seyonec_ChemBERTa,No Lag,Downstream First,CS,PS,R,R,CSR,PSR,Rare Alignment Pattern,Sparse Alignment Pattern,1
shenzhi-wang,shenzhi-wang_Llama3,No Lag,Upstream First,PS,AS,R,R,PSR,ASR,Sparse Alignment Pattern,Rare disjoint pattern,3
shhossain,shhossain_opus-mt,No Lag,No Lag,CS,PS,R,R,CSR,PSR,Rare Alignment Pattern,Sparse Alignment Pattern,1
shibing624,shibing624_text2vec,Downstream First,Upstream First,AS,PS,S,S,ASS,PSS,Sporadic Disjoint Pattern,Dispersed Alignment Pattern,2
sileod,sileod_deberta,Upstream First,Upstream First,PS,PS,S,S,PSS,PSS,Dispersed Alignment Pattern,Dispersed Alignment Pattern,2
smallcloudai,smallcloudai_Refact,Upstream First,No Lag,CS,CS,R,R,CSR,CSR,Rare Alignment Pattern,Rare Alignment Pattern,1
Snowflake,Snowflake_snowflake,No Lag,Downstream First,CS,PS,R,R,CSR,PSR,Rare Alignment Pattern,Sparse Alignment Pattern,6
snrspeaks,snrspeaks_KeyPhraseTransformer,No Lag,Upstream First,CS,CS,R,R,CSR,CSR,Rare Alignment Pattern,Rare Alignment Pattern,1
snrspeaks,snrspeaks_t5-summary,Upstream First,Downstream First,CS,AS,R,R,CSR,ASR,Rare Alignment Pattern,Rare disjoint pattern,1
snunlp,snunlp_KR-ELECTRA,No Lag,No Lag,CS,PS,R,R,CSR,PSR,Rare Alignment Pattern,Sparse Alignment Pattern,1
snunlp,snunlp_KR-SBERT,Upstream First,Upstream First,AS,CS,R,R,ASR,CSR,Rare disjoint pattern,Rare Alignment Pattern,1
stabilityai,stabilityai_japanese-stablelm,Downstream First,Downstream First,AS,AS,R,R,ASR,ASR,Rare disjoint pattern,Rare disjoint pattern,1
stabilityai,stabilityai_StableBeluga,Upstream First,Upstream First,AS,AS,R,R,ASR,ASR,Rare disjoint pattern,Rare disjoint pattern,2
stabilityai,stabilityai_stable-code,Upstream First,Upstream First,AS,PS,R,S,ASR,PSS,Rare disjoint pattern,Dispersed Alignment Pattern,1
stabilityai,stabilityai_stablelm,Upstream First,Upstream First,AS,PS,R,S,ASR,PSS,Rare disjoint pattern,Dispersed Alignment Pattern,5
stanfordnlp,stanfordnlp_stanza,Upstream First,Upstream First,PS,CS,F,F,PSF,CSF,Dense Partial Alignment Pattern,Frequent Alignment Pattern,1
starmpcc,starmpcc_Asclepius,Upstream First,No Lag,CS,CS,R,R,CSR,CSR,Rare Alignment Pattern,Rare Alignment Pattern,1
Supabase,Supabase_gte,Upstream First,Upstream First,CS,CS,R,R,CSR,CSR,Rare Alignment Pattern,Rare Alignment Pattern,1
swap-uniba,swap-uniba_LLaMAntino,No Lag,No Lag,CS,PS,R,S,CSR,PSS,Rare Alignment Pattern,Dispersed Alignment Pattern,1
taide,taide_TAIDE,No Lag,No Lag,CS,PS,R,R,CSR,PSR,Rare Alignment Pattern,Sparse Alignment Pattern,2
teknium,teknium_OpenHermes,Downstream First,Downstream First,AS,AS,R,R,ASR,ASR,Rare disjoint pattern,Rare disjoint pattern,1
TencentGameMate,TencentGameMate_chinese-hubert,No Lag,No Lag,CS,CS,R,R,CSR,CSR,Rare Alignment Pattern,Rare Alignment Pattern,1
textattack,textattack_textattack,Upstream First,Downstream First,CS,PS,R,R,CSR,PSR,Rare Alignment Pattern,Sparse Alignment Pattern,15
THUDM,THUDM_cogvlm,Upstream First,Upstream First,AS,AS,R,R,ASR,ASR,Rare disjoint pattern,Rare disjoint pattern,1
THUDM,THUDM_cogvlm2,No Lag,No Lag,CS,PS,R,R,CSR,PSR,Rare Alignment Pattern,Sparse Alignment Pattern,1
TIGER-Lab,TIGER-Lab_MAmmoTH2,No Lag,No Lag,CS,CS,R,R,CSR,CSR,Rare Alignment Pattern,Rare Alignment Pattern,1
TinyLlama,TinyLlama_TinyLlama,No Lag,Upstream First,PS,PS,R,S,PSR,PSS,Sparse Alignment Pattern,Dispersed Alignment Pattern,7
tner,tner_roberta,Upstream First,Upstream First,AS,CS,R,R,ASR,CSR,Rare disjoint pattern,Rare Alignment Pattern,1
togethercomputer,togethercomputer_GPT,Downstream First,Downstream First,AS,AS,R,R,ASR,ASR,Rare disjoint pattern,Rare disjoint pattern,1
togethercomputer,togethercomputer_Llama,Downstream First,No Lag,PS,PS,R,S,PSR,PSS,Sparse Alignment Pattern,Dispersed Alignment Pattern,2
togethercomputer,togethercomputer_StripedHyena,No Lag,No Lag,PS,PS,S,R,PSS,PSR,Dispersed Alignment Pattern,Sparse Alignment Pattern,2
tohoku-nlp,tohoku-nlp_japanese_bert,Upstream First,Upstream First,VS,PS,S,R,VSS,PSR,Sporadic Disjoint Pattern,Sparse Alignment Pattern,6
tomaarsen,tomaarsen_span-marker,Upstream First,Upstream First,AS,CS,R,R,ASR,CSR,Rare disjoint pattern,Rare Alignment Pattern,1
transfo-xl,transfo-xl_transfo,Upstream First,Upstream First,AS,AS,S,S,ASS,ASS,Sporadic Disjoint Pattern,Sporadic Disjoint Pattern,1
tsmatz,tsmatz_xlm-roberta,No Lag,No Lag,CS,PS,R,S,CSR,PSS,Rare Alignment Pattern,Dispersed Alignment Pattern,1
T-Systems-onsite,T-Systems-onsite_sentence-transformer,Upstream First,Upstream First,AS,AS,R,S,ASR,ASS,Rare disjoint pattern,Sporadic Disjoint Pattern,1
tugstugi,tugstugi_mongolian-bert,Upstream First,Upstream First,AS,AS,R,R,ASR,ASR,Rare disjoint pattern,Rare disjoint pattern,4
tuner007,tuner007_pegasus_paraphrase,No Lag,Upstream First,CS,AS,R,R,CSR,ASR,Rare Alignment Pattern,Rare disjoint pattern,1
TurkuNLP,TurkuNLP_bert,Upstream First,Upstream First,AS,AS,S,S,ASS,ASS,Sporadic Disjoint Pattern,Sporadic Disjoint Pattern,1
unitary,unitary_detoxify,Upstream First,Downstream First,CS,PS,R,S,CSR,PSS,Rare Alignment Pattern,Dispersed Alignment Pattern,2
unsloth,unsloth_unsloth-models,No Lag,Upstream First,PS,CS,S,R,PSS,CSR,Dispersed Alignment Pattern,Rare Alignment Pattern,17
unum-cloud,unum-cloud_uform3,Upstream First,Upstream First,AS,CS,R,R,ASR,CSR,Rare disjoint pattern,Rare Alignment Pattern,1
upskyy,upskyy_kf-deberta,No Lag,Downstream First,CS,AS,R,R,CSR,ASR,Rare Alignment Pattern,Rare disjoint pattern,1
urchade,urchade_gliner-models,Upstream First,Downstream First,CS,PS,R,R,CSR,PSR,Rare Alignment Pattern,Sparse Alignment Pattern,6
uw-madison,uw-madison_mra-model,Upstream First,Upstream First,AS,AS,R,R,ASR,ASR,Rare disjoint pattern,Rare disjoint pattern,1
valhalla,valhalla_mnli-model,Downstream First,Upstream First,PS,AS,R,R,PSR,ASR,Sparse Alignment Pattern,Rare disjoint pattern,3
valhalla,valhalla_t5-models,No Lag,Upstream First,CS,AS,R,R,CSR,ASR,Rare Alignment Pattern,Rare disjoint pattern,1
Vamsi,Vamsi_T5_Paraphrase,No Lag,Downstream First,CS,PS,R,R,CSR,PSR,Rare Alignment Pattern,Sparse Alignment Pattern,1
vectara,vectara_hallucination,No Lag,Downstream First,CS,PS,R,S,CSR,PSS,Rare Alignment Pattern,Dispersed Alignment Pattern,1
whaleloops,whaleloops_phrase-bert,Downstream First,Upstream First,AS,CS,R,R,ASR,CSR,Rare disjoint pattern,Rare Alignment Pattern,1
wonrax,wonrax_phobert,No Lag,Upstream First,CS,CS,R,R,CSR,CSR,Rare Alignment Pattern,Rare Alignment Pattern,1
wukevin,wukevin_tcr-bert,Downstream First,Downstream First,AS,AS,R,R,ASR,ASR,Rare disjoint pattern,Rare disjoint pattern,1
wxjiao,wxjiao_alpaca,No Lag,No Lag,CS,CS,R,R,CSR,CSR,Rare Alignment Pattern,Rare Alignment Pattern,1
xlnet,xlnet_xlnet,No Lag,Upstream First,PS,AS,S,S,PSS,ASS,Dispersed Alignment Pattern,Sporadic Disjoint Pattern,2
yahma,yahma_llama,Upstream First,Upstream First,AS,CS,R,R,ASR,CSR,Rare disjoint pattern,Rare Alignment Pattern,1
yangheng,yangheng_absa-model,Upstream First,Upstream First,AS,AS,R,S,ASR,ASS,Rare disjoint pattern,Sporadic Disjoint Pattern,1
YituTech,YituTech_conv-bert,Upstream First,Upstream First,AS,AS,R,R,ASR,ASR,Rare disjoint pattern,Rare disjoint pattern,1
